{
    "links": {
        "self": "http://www.neowsapp.com/rest/v1/neo/3472696?api_key=iIulBulltgU6a56xZRHN4H3l9WmuAYTsLGpBGhQ2"
    },
    "id": "3472696",
    "neo_reference_id": "3472696",
    "name": "(2009 UV87)",
    "designation": "2009 UV87",
    "nasa_jpl_url": "http://ssd.jpl.nasa.gov/sbdb.cgi?sstr=3472696",
    "absolute_magnitude_h": 24.8,
    "estimated_diameter": {
        "kilometers": {
            "estimated_diameter_min": 0.0291443905,
            "estimated_diameter_max": 0.0651688382
        },
        "meters": {
            "estimated_diameter_min": 29.1443904535,
            "estimated_diameter_max": 65.1688382168
        },
        "miles": {
            "estimated_diameter_min": 0.018109479,
            "estimated_diameter_max": 0.0404940262
        },
        "feet": {
            "estimated_diameter_min": 95.6180819754,
            "estimated_diameter_max": 213.8085311752
        }
    },
    "is_potentially_hazardous_asteroid": false,
    "close_approach_data": [
        {
            "close_approach_date": "2009-10-28",
            "close_approach_date_full": "2009-Oct-28 06:27",
            "epoch_date_close_approach": 1256711220000,
            "relative_velocity": {
                "kilometers_per_second": "8.9397941103",
                "kilometers_per_hour": "32183.258797005",
                "miles_per_hour": "19997.4254452835"
            },
            "miss_distance": {
                "astronomical": "0.0661328454",
                "lunar": "25.7256768606",
                "kilometers": "9893332.808879298",
                "miles": "6147431.9472303924"
            },
            "orbiting_body": "Earth"
        }
    ],
    "orbital_data": {
        "orbit_id": "8",
        "orbit_determination_date": "2017-04-06 08:59:20",
        "first_observation_date": "2009-10-27",
        "last_observation_date": "2009-10-30",
        "data_arc_in_days": 3,
        "observations_used": 20,
        "orbit_uncertainty": "8",
        "minimum_orbit_intersection": ".0637892",
        "jupiter_tisserand_invariant": "3.171",
        "epoch_osculation": "2455132.5",
        "eccentricity": ".5820046074725654",
        "semi_major_axis": "2.530874891183138",
        "inclination": "10.56004537202661",
        "ascending_node_longitude": "213.3872464188682",
        "orbital_period": "1470.633459338297",
        "perihelion_distance": "1.057894043577924",
        "perihelion_argument": "179.7632714344867",
        "aphelion_distance": "4.003855738788353",
        "perihelion_time": "2455132.011933874179",
        "mean_anomaly": ".1194749134666207",
        "mean_motion": ".2447924720562118",
        "equinox": "J2000",
        "orbit_class": {
            "orbit_class_type": "AMO",
            "orbit_class_description": "Near-Earth asteroid orbits similar to that of 1221 Amor",
            "orbit_class_range": "1.017 AU < q (perihelion) < 1.3 AU"
        }
    },
    "is_sentry_object": false
}